DELTA 2 R/B(1)          
1 20453U 90008B   26071.58229221  .00068711  00000+0  79308-3 0  9990
2 20453  35.6032 155.8638 0084468 285.3867  73.7550 15.56385855926588
COSMOS 2058             
1 20465U 90010A   26071.42889697  .00004772  00000+0  28118-3 0  9998
2 20465  82.4668  44.7287 0008931 335.5228  24.5576 15.11349429942658
SL-14 R/B               
1 20466U 90010B   26071.58709814  .00000530  00000+0  61353-4 0  9995
2 20466  82.4986 264.6662 0018420 292.0668  67.8591 14.83571789928915
SL-14 R/B               
1 20511U 90018B   26071.47270538  .00000656  00000+0  79303-4 0  9991
2 20511  82.5208 220.4881 0017645  83.6362 276.6861 14.82148561922999
HST                     
1 20580U 90037B   26071.22647860  .00008646  00000+0  28559-3 0  9990
2 20580  28.4723  22.6938 0001818 150.2149 209.8550 15.29528665773705
SL-16 R/B               
1 20625U 90046B   26071.03002069 -.00000183  00000+0 -69834-4 0  9997
2 20625  70.9984 292.9996 0016246 296.4241  63.5214 14.15011596848720
COSMOS 2084             
1 20663U 90055A   26071.71059065  .00002809  00000+0  20683-3 0  9995
2 20663  62.7917 325.2753 0016622 190.7601 169.3146 15.05671013936770
SL-6 R/B(2)             
1 20666U 90055D   26071.63086147  .00002597  00000+0  20229-3 0  9990
2 20666  62.7824 243.8482 0025267 347.7413  12.3068 15.03611178938635
SL-8 R/B                
1 20775U 90078B   26071.53213440  .00015911  00000+0  46878-3 0  9995
2 20775  82.9003 248.7539 0361621   4.4419 355.9858 14.89163958809727
SL-8 R/B                
1 21088U 91006B   26071.69616310  .00000084  00000+0  69141-4 0  9999
2 21088  82.9465 167.8109 0022903  30.1183 135.5379 13.77494756764484
OKEAN-3                 
1 21397U 91039A   26071.67128936  .00003998  00000+0  28068-3 0  9997
2 21397  82.5198 333.9552 0013688 326.6607  33.3756 15.04830412865489
COSMOS 2151             
1 21422U 91042A   26071.68500354  .00002442  00000+0  19335-3 0  9999
2 21422  82.4930  80.7859 0013880  54.6153 305.6366 15.00117035863649
SL-14 R/B               
1 21423U 91042B   26071.45877132  .00000640  00000+0  77993-4 0  9999
2 21423  82.4930 217.5857 0015934 228.8675 131.1164 14.81833129853480
ERS-1                   
1 21574U 91050A   26071.61679338  .00000400  00000+0  14253-3 0  9994
2 21574  98.7879  89.9249 0031784 191.6849 168.3604 14.39452058816151
ARIANE 40 R/B           
1 21610U 91050F   26071.59143619  .00000368  00000+0  12275-3 0  9995
2 21610  98.2006 123.7188 0004254  74.8603 285.3058 14.42896128819419
INTERCOSMOS 25          
1 21819U 91086A   26071.62963413  .00002048  00000+0  39441-3 0  9992
2 21819  82.6046 308.2314 1486915 110.6005 266.0590 12.12009709497040
SL-8 R/B                
1 21876U 92008B   26071.63136927  .00000012  00000+0 -38045-5 0  9994
2 21876  82.9221 265.5895 0035661 125.3686 300.1195 13.75969800709825
SL-8 R/B                
1 21938U 92020B   26071.69327080  .00000065  00000+0  51822-4 0  9999
2 21938  82.9332 151.5318 0027644 290.0356 223.8355 13.75549855701541
USA 81                  
1 21949U 92023A   26071.59282885  .00000189  00000+0  62467-4 0  9990
2 21949  85.0079 129.7664 0002390  75.1126 285.0331 14.32369046 95203
COSMOS 2219             
1 22219U 92076A   26071.27978301  .00000061  00000+0  56674-4 0  9991
2 22219  71.0639  12.6533 0018845 203.5025 156.5238 14.14093345718748
SL-16 R/B               
1 22220U 92076B   26071.58133884 -.00000122  00000+0 -36721-4 0  9997
2 22220  71.0009 182.2830 0010482  91.0926 279.9516 14.16859226722243
COSMOS 2221             
1 22236U 92080A   26071.64685718  .00002468  00000+0  21625-3 0  9993
2 22236  82.5011 276.2478 0014290 177.0805 183.0503 14.96214037781232
SL-16 R/B               
1 22285U 92093B   26071.21295549 -.00000147  00000+0 -51046-4 0  9998
2 22285  71.0242 358.9692 0006383 291.0584  68.9856 14.15447267713518
COSMOS 2228             
1 22286U 92094A   26071.66125586  .00003280  00000+0  28069-3 0  9999
2 22286  82.5159 234.4647 0016692 293.9062  66.0412 14.97207840776503
SL-16 R/B               
1 22566U 93016B   26071.60700976 -.00000015  00000+0  16641-4 0  9999
2 22566  71.0079 209.0536 0012038 310.2008  49.8060 14.15309346702585
COSMOS 2242             
1 22626U 93024A   26071.57783870  .00002048  00000+0  17746-3 0  9998
2 22626  82.5155 263.9533 0015033 298.3589  61.6117 14.96561983780822
SL-16 R/B               
1 22803U 93059B   26071.51189748 -.00000055  00000+0 -33432-5 0  9991
2 22803  70.9929   5.1749 0018365 212.4075 147.5922 14.17231383679930
ARIANE 40 R/B           
1 22830U 93061H   26071.63145304  .00000247  00000+0  10648-3 0  9990
2 22830  98.4910 140.4609 0009572 275.3376  84.6716 14.32862833694526
COSMOS 2278             
1 23087U 94023A   26071.70954885 -.00000011  00000+0  18980-4 0  9992
2 23087  71.0552 168.7804 0008293   7.5290 352.5956 14.14379509645239
SL-16 R/B               
1 23088U 94023B   26071.40119859 -.00000214  00000+0 -85656-4 0  9994
2 23088  70.9985  65.1919 0005689 282.9842  77.0645 14.15010922646476
SL-16 R/B               
1 23343U 94074B   26071.64413664  .00000599  00000+0  86909-4 0  9997
2 23343  97.7107 102.3422 0006031 199.6601 274.8017 14.79411986687688
SL-16 R/B               
1 23405U 94077B   26071.16978169  .00000105  00000+0  78284-4 0  9992
2 23405  70.9853 347.2721 0002954 208.8129 151.2831 14.15561637616580
ARIANE 40+ R/B          
1 23561U 95021B   26071.68556112  .00000354  00000+0  12689-3 0  9994
2 23561  98.4491 143.1275 0007765 128.4661  33.3114 14.39775036619679
SL-16 R/B               
1 23705U 95058B   26071.67157243  .00000325  00000+0  19035-3 0  9995
2 23705  71.0225 173.9954 0010651 120.2711 239.9467 14.15497435568272
SL-16 R/B               
1 24298U 96051B   26071.64474412  .00000088  00000+0  74145-4 0  9994
2 24298  70.7604 168.9844 0014831 143.5113 216.7020 14.12416529522064
ORBVIEW 2 (SEASTAR)     
1 24883U 97037A   26071.41507765  .00000369  00000+0  14441-3 0  9996
2 24883  98.8572 235.7991 0003027  66.4464 293.7039 14.35497264508869
SL-16 R/B               
1 25400U 98043G   26071.46796786  .00000086  00000+0  54888-4 0  9994
2 25400  98.8256  24.8511 0010079  12.7438 347.3994 14.26050553439381
SL-16 R/B               
1 25407U 98045B   26071.68103589  .00000297  00000+0  17402-3 0  9994
2 25407  71.0120 175.2837 0006932   3.5595 356.5576 14.16191601427528
ISS (ZARYA)             
1 25544U 98067A   26071.61089376  .00009081  00000+0  17507-3 0  9996
2 25544  51.6325  57.9128 0007968 184.9992 175.0918 15.48604404556786
CZ-4B R/B               
1 25732U 99025C   26071.63843802  .00000054  00000+0  46771-4 0  9991
2 25732  98.6621 115.8501 0036592 338.0096 133.9497 14.18265985388585
OKEAN-O                 
1 25860U 99039A   26071.62607769  .00000871  00000+0  12103-3 0  9995
2 25860  97.9435 131.4876 0001167  70.7186 289.4152 14.80341084434829
SL-16 R/B               
1 25861U 99039B   26071.60317568  .00000733  00000+0  99680-4 0  9992
2 25861  97.9961 130.6957 0013593 245.6497 114.3296 14.81736426437297
DELTA 2 R/B             
1 25876U 99041E   26071.55663152  .00001427  00000+0  26782-3 0  9991
2 25876  51.7625 289.8292 0502445 356.8855   2.8986 14.11847454363437
HELIOS 1B               
1 25977U 99064A   26071.67322810  .00002359  00000+0  26522-3 0  9991
2 25977  98.1685 334.0039 0002427  71.3671 288.7808 14.87712862685704
TERRA                   
1 25994U 99068A   26071.66717493  .00000539  00000+0  11893-3 0  9991
2 25994  97.9588 124.9881 0002876 144.7271 313.2913 14.61018426395517
SL-16 R/B               
1 26070U 00006B   26071.48526719 -.00000168  00000+0 -61237-4 0  9998
2 26070  71.0006  91.9589 0016616 186.1025 173.9898 14.15825371348956
TITAN 4B R/B            
1 26474U 00047B   26071.61186999  .00005302  00000+0  33160-3 0  9994
2 26474  67.9903  32.2928 0038663  31.9673 328.3810 15.09595648393350
ENVISAT                 
1 27386U 02009A   26071.47222046  .00000169  00000+0  68716-4 0  9997
2 27386  98.3732  25.0034 0001309  83.1199  26.8150 14.39038169259572
IDEFIX & ARIANE 42P R/B 
1 27422U 02021B   26071.57233978  .00000347  00000+0  14826-3 0  9999
2 27422  98.5870  10.1441 0011747 173.6441 186.4894 14.31028525244431
AQUA                    
1 27424U 02022A   26071.70787243  .00001307  00000+0  27060-3 0  9997
2 27424  98.4178  39.1278 0000579  92.2397  31.5807 14.61985609269179
CZ-4B R/B               
1 27432U 02024C   26071.63714198  .00000052  00000+0  49699-4 0  9998
2 27432  98.8832 125.0288 0050349  15.8876 137.2936 14.14548224229650
MIDORI II (ADEOS-II)    
1 27597U 02056A   26071.46388450  .00000401  00000+0  17528-3 0  9997
2 27597  98.7770  29.9606 0001487  39.5870 320.5420 14.29287756210699
H-2A R/B                
1 27601U 02056E   26071.50878414  .00000343  00000+0  13444-3 0  9990
2 27601  98.3206  31.7671 0070669 152.3201 320.2769 14.33762953214518
CZ-4B R/B               
1 28059U 03049C   26071.54683965  .00000487  00000+0  12323-3 0  9994
2 28059  98.6880  66.5637 0047354 221.9948 137.7613 14.55023378187019
CZ-2C R/B               
1 28222U 04012C   26071.61490444  .00059923  00000+0  60927-3 0  9995
2 28222  97.7223 137.1851 0013003 297.7229  62.2710 15.64883992204738
SL-16 R/B               
1 28353U 04021B   26071.63907517 -.00000274  00000+0 -11783-3 0  9999
2 28353  70.9997 226.3025 0004249   4.9232 355.1931 14.14596762123258
CZ-4B R/B               
1 28415U 04035C   26071.59227278  .00008700  00000+0  30613-3 0  9990
2 28415  97.3503 105.8003 0030718 320.8598  39.0420 15.29119422180351
CZ-2C R/B               
1 28480U 04046B   26071.71103752  .00000140  00000+0  66858-4 0  9999
2 28480  98.1980 346.5070 0140051 145.5412 215.4949 14.26993231108932
ARIANE 5 R/B            
1 28499U 04049H   26071.46212156  .00000965  00000+0  11277-3 0  9992
2 28499  98.2631 240.0229 0083749 342.9143  16.9254 14.85271940146200
